[{"OBJECT_NAME":"KUIPER-00214","OBJECT_ID":"2026-030Q","EPOCH":"2026-03-12T19:13:49.893024","MEAN_MOTION":15.36944551,"ECCENTRICITY":5.548e-5,"INCLINATION":51.8832,"RA_OF_ASC_NODE":203.9405,"ARG_OF_PERICENTER":351.6615,"MEAN_ANOMALY":8.4362,"EPHEMERIS_TYPE":0,"CLASSIFICATION_TYPE":"U","NORAD_CAT_ID":67778,"ELEMENT_SET_NO":999,"REV_AT_EPOCH":557,"BSTAR":0.00059882685,"MEAN_MOTION_DOT":0.00021647,"MEAN_MOTION_DDOT":0},{"OBJECT_NAME":"KUIPER-00215","OBJECT_ID":"2026-030R","EPOCH":"2026-03-11T17:39:47.569536","MEAN_MOTION":15.34588543,"ECCENTRICITY":0.00105203,"INCLINATION":51.8834,"RA_OF_ASC_NODE":209.5383,"ARG_OF_PERICENTER":66.2297,"MEAN_ANOMALY":293.9791,"EPHEMERIS_TYPE":0,"CLASSIFICATION_TYPE":"U","NORAD_CAT_ID":67779,"ELEMENT_SET_NO":999,"REV_AT_EPOCH":540,"BSTAR":0.0009528564,"MEAN_MOTION_DOT":0.00032228,"MEAN_MOTION_DDOT":0},{"OBJECT_NAME":"KUIPER-00218","OBJECT_ID":"2026-030S","EPOCH":"2026-03-12T15:13:59.687040","MEAN_MOTION":15.35355842,"ECCENTRICITY":0.0007103,"INCLINATION":51.8841,"RA_OF_ASC_NODE":205.0636,"ARG_OF_PERICENTER":58.4826,"MEAN_ANOMALY":301.6853,"EPHEMERIS_TYPE":0,"CLASSIFICATION_TYPE":"U","NORAD_CAT_ID":67780,"ELEMENT_SET_NO":999,"REV_AT_EPOCH":554,"BSTAR":0.00095182,"MEAN_MOTION_DOT":0.0003297,"MEAN_MOTION_DDOT":0},{"OBJECT_NAME":"KUIPER-00220","OBJECT_ID":"2026-030T","EPOCH":"2026-03-12T13:51:52.009920","MEAN_MOTION":15.34940236,"ECCENTRICITY":0.0008536,"INCLINATION":51.8815,"RA_OF_ASC_NODE":205.4205,"ARG_OF_PERICENTER":64.1453,"MEAN_ANOMALY":296.0412,"EPHEMERIS_TYPE":0,"CLASSIFICATION_TYPE":"U","NORAD_CAT_ID":67781,"ELEMENT_SET_NO":999,"REV_AT_EPOCH":553,"BSTAR":0.0010621,"MEAN_MOTION_DOT":0.00036374,"MEAN_MOTION_DDOT":0},{"OBJECT_NAME":"KUIPER-00222","OBJECT_ID":"2026-030U","EPOCH":"2026-03-12T17:48:19.589760","MEAN_MOTION":15.32177597,"ECCENTRICITY":0.00173813,"INCLINATION":51.8794,"RA_OF_ASC_NODE":205.0095,"ARG_OF_PERICENTER":76.7472,"MEAN_ANOMALY":283.545,"EPHEMERIS_TYPE":0,"CLASSIFICATION_TYPE":"U","NORAD_CAT_ID":67782,"ELEMENT_SET_NO":999,"REV_AT_EPOCH":555,"BSTAR":0.001101139,"MEAN_MOTION_DOT":0.0003466,"MEAN_MOTION_DDOT":0},{"OBJECT_NAME":"KUIPER-00223","OBJECT_ID":"2026-030V","EPOCH":"2026-03-12T18:47:23.577792","MEAN_MOTION":15.34266835,"ECCENTRICITY":0.00124002,"INCLINATION":51.8835,"RA_OF_ASC_NODE":204.5516,"ARG_OF_PERICENTER":67.4257,"MEAN_ANOMALY":292.8039,"EPHEMERIS_TYPE":0,"CLASSIFICATION_TYPE":"U","NORAD_CAT_ID":67783,"ELEMENT_SET_NO":999,"REV_AT_EPOCH":556,"BSTAR":0.0011228961,"MEAN_MOTION_DOT":0.0003771,"MEAN_MOTION_DDOT":0},{"OBJECT_NAME":"KUIPER-00225","OBJECT_ID":"2026-030W","EPOCH":"2026-03-12T18:03:27.982080","MEAN_MOTION":15.35574856,"ECCENTRICITY":0.00030287,"INCLINATION":51.8813,"RA_OF_ASC_NODE":204.3497,"ARG_OF_PERICENTER":38.5587,"MEAN_ANOMALY":321.5615,"EPHEMERIS_TYPE":0,"CLASSIFICATION_TYPE":"U","NORAD_CAT_ID":67784,"ELEMENT_SET_NO":999,"REV_AT_EPOCH":556,"BSTAR":0.016523309,"MEAN_MOTION_DOT":0.00622202,"MEAN_MOTION_DDOT":0},{"OBJECT_NAME":"KUIPER-00226","OBJECT_ID":"2026-030X","EPOCH":"2026-03-12T18:14:53.561760","MEAN_MOTION":15.3064908,"ECCENTRICITY":0.00194413,"INCLINATION":51.8829,"RA_OF_ASC_NODE":205.1308,"ARG_OF_PERICENTER":80.7069,"MEAN_ANOMALY":279.6113,"EPHEMERIS_TYPE":0,"CLASSIFICATION_TYPE":"U","NORAD_CAT_ID":67785,"ELEMENT_SET_NO":999,"REV_AT_EPOCH":555,"BSTAR":0.0011851992,"MEAN_MOTION_DOT":0.00035628,"MEAN_MOTION_DDOT":0},{"OBJECT_NAME":"KUIPER-00259","OBJECT_ID":"2026-030Y","EPOCH":"2026-03-12T18:25:07.896864","MEAN_MOTION":15.35239757,"ECCENTRICITY":0.00088736,"INCLINATION":51.8816,"RA_OF_ASC_NODE":204.447,"ARG_OF_PERICENTER":57.5068,"MEAN_ANOMALY":302.6775,"EPHEMERIS_TYPE":0,"CLASSIFICATION_TYPE":"U","NORAD_CAT_ID":67786,"ELEMENT_SET_NO":999,"REV_AT_EPOCH":556,"BSTAR":0.001040052,"MEAN_MOTION_DOT":0.00035957,"MEAN_MOTION_DDOT":0},{"OBJECT_NAME":"KUIPER-00260","OBJECT_ID":"2026-030Z","EPOCH":"2026-03-12T17:48:29.892096","MEAN_MOTION":15.36687579,"ECCENTRICITY":0.00017758,"INCLINATION":51.8805,"RA_OF_ASC_NODE":204.281,"ARG_OF_PERICENTER":41.9993,"MEAN_ANOMALY":318.1129,"EPHEMERIS_TYPE":0,"CLASSIFICATION_TYPE":"U","NORAD_CAT_ID":67787,"ELEMENT_SET_NO":999,"REV_AT_EPOCH":547,"BSTAR":0.0010513935,"MEAN_MOTION_DOT":0.00038066,"MEAN_MOTION_DDOT":0},{"OBJECT_NAME":"KUIPER-00262","OBJECT_ID":"2026-030AA","EPOCH":"2026-03-12T17:41:59.840160","MEAN_MOTION":15.36877241,"ECCENTRICITY":8.735e-5,"INCLINATION":51.8819,"RA_OF_ASC_NODE":204.2534,"ARG_OF_PERICENTER":34.0598,"MEAN_ANOMALY":326.0445,"EPHEMERIS_TYPE":0,"CLASSIFICATION_TYPE":"U","NORAD_CAT_ID":67788,"ELEMENT_SET_NO":999,"REV_AT_EPOCH":556,"BSTAR":0.0012235559,"MEAN_MOTION_DOT":0.00044675,"MEAN_MOTION_DDOT":0},{"OBJECT_NAME":"KUIPER-00266","OBJECT_ID":"2026-030AB","EPOCH":"2026-03-12T15:13:22.223136","MEAN_MOTION":15.30744734,"ECCENTRICITY":0.00231502,"INCLINATION":51.8822,"RA_OF_ASC_NODE":205.779,"ARG_OF_PERICENTER":84.626,"MEAN_ANOMALY":275.7364,"EPHEMERIS_TYPE":0,"CLASSIFICATION_TYPE":"U","NORAD_CAT_ID":67789,"ELEMENT_SET_NO":999,"REV_AT_EPOCH":553,"BSTAR":0.00096376403,"MEAN_MOTION_DOT":0.00029032,"MEAN_MOTION_DDOT":0},{"OBJECT_NAME":"KUIPER-00268","OBJECT_ID":"2026-030AC","EPOCH":"2026-03-12T17:59:13.194528","MEAN_MOTION":15.36176538,"ECCENTRICITY":0.00025798,"INCLINATION":51.8845,"RA_OF_ASC_NODE":204.3408,"ARG_OF_PERICENTER":44.1237,"MEAN_ANOMALY":315.9955,"EPHEMERIS_TYPE":0,"CLASSIFICATION_TYPE":"U","NORAD_CAT_ID":67790,"ELEMENT_SET_NO":999,"REV_AT_EPOCH":556,"BSTAR":0.0010035921,"MEAN_MOTION_DOT":0.0003571,"MEAN_MOTION_DDOT":0},{"OBJECT_NAME":"KUIPER-00270","OBJECT_ID":"2026-030AD","EPOCH":"2026-03-12T18:35:54.303648","MEAN_MOTION":15.34798865,"ECCENTRICITY":0.00098595,"INCLINATION":51.8819,"RA_OF_ASC_NODE":204.4931,"ARG_OF_PERICENTER":64.6977,"MEAN_ANOMALY":295.5029,"EPHEMERIS_TYPE":0,"CLASSIFICATION_TYPE":"U","NORAD_CAT_ID":67791,"ELEMENT_SET_NO":999,"REV_AT_EPOCH":556,"BSTAR":0.0011346559,"MEAN_MOTION_DOT":0.00038736,"MEAN_MOTION_DDOT":0},{"OBJECT_NAME":"KUIPER-00274","OBJECT_ID":"2026-030AE","EPOCH":"2026-03-12T15:02:03.874272","MEAN_MOTION":15.29839206,"ECCENTRICITY":0.0017716,"INCLINATION":51.8822,"RA_OF_ASC_NODE":205.7385,"ARG_OF_PERICENTER":80.0932,"MEAN_ANOMALY":280.2051,"EPHEMERIS_TYPE":0,"CLASSIFICATION_TYPE":"U","NORAD_CAT_ID":67792,"ELEMENT_SET_NO":999,"REV_AT_EPOCH":553,"BSTAR":-2.5386e-5,"MEAN_MOTION_DOT":-1.118e-5,"MEAN_MOTION_DDOT":0},{"OBJECT_NAME":"KUIPER-00275","OBJECT_ID":"2026-030AF","EPOCH":"2026-03-12T18:31:32.747520","MEAN_MOTION":15.34909681,"ECCENTRICITY":0.00094424,"INCLINATION":51.8845,"RA_OF_ASC_NODE":204.486,"ARG_OF_PERICENTER":62.2662,"MEAN_ANOMALY":297.928,"EPHEMERIS_TYPE":0,"CLASSIFICATION_TYPE":"U","NORAD_CAT_ID":67793,"ELEMENT_SET_NO":999,"REV_AT_EPOCH":556,"BSTAR":0.0011214983,"MEAN_MOTION_DOT":0.00038412,"MEAN_MOTION_DDOT":0}]
